[{"OBJECT_NAME":"STARLINK-31722","OBJECT_ID":"2024-074R","EPOCH":"2026-03-09T03:08:23.709408","MEAN_MOTION":15.27564383,"ECCENTRICITY":8.858e-5,"INCLINATION":43.0032,"RA_OF_ASC_NODE":346.2692,"ARG_OF_PERICENTER":267.8976,"MEAN_ANOMALY":92.1774,"EPHEMERIS_TYPE":0,"CLASSIFICATION_TYPE":"U","NORAD_CAT_ID":59549,"ELEMENT_SET_NO":999,"REV_AT_EPOCH":10593,"BSTAR":-0.00010874237,"MEAN_MOTION_DOT":-3.251e-5,"MEAN_MOTION_DDOT":0},{"OBJECT_NAME":"FLOCK 4G-29","OBJECT_ID":"2025-009AK","EPOCH":"2026-03-09T19:33:04.927968","MEAN_MOTION":15.27382318,"ECCENTRICITY":0.00013664,"INCLINATION":97.4058,"RA_OF_ASC_NODE":151.3683,"ARG_OF_PERICENTER":288.0502,"MEAN_ANOMALY":72.0588,"EPHEMERIS_TYPE":0,"CLASSIFICATION_TYPE":"U","NORAD_CAT_ID":62642,"ELEMENT_SET_NO":999,"REV_AT_EPOCH":6372,"BSTAR":0.0004183135,"MEAN_MOTION_DOT":0.00011147,"MEAN_MOTION_DDOT":0}]
